GLOBALSTAR M035         
1 25851U 99037A   24162.74177588 -.00000052  00000+0  45897-3 0  9994
2 25851  51.9909 163.3164 0013032 100.2629  70.5320 11.04530908 55210
GLOBALSTAR M032         
1 25852U 99037B   24162.74532068  .00000004  00000+0  22649-2 0  9998
2 25852  51.9981  14.1358 0009261 261.3197  98.6554 11.19054762 93203
GLOBALSTAR M051         
1 25853U 99037C   24162.82491264 -.00000036  00000+0  88903-3 0  9992
2 25853  51.9771 216.7526 0001517 258.0715 101.9925 11.42199131 89956
GLOBALSTAR M030         
1 25854U 99037D   24162.93544919 -.00000036  00000+0  83531-3 0  9993
2 25854  51.9901  46.1969 0004296  97.6799 262.4506 11.55095684107146
GLOBALSTAR M048         
1 25872U 99041A   24162.64734036 -.00000083  00000+0 -36460-3 0  9999
2 25872  51.9336 137.8460 0013689 263.1874 268.6935 11.33846815 82830
GLOBALSTAR M026         
1 25873U 99041B   24162.62636604 -.00000081  00000+0 -62354-3 0  9999
2 25873  52.0024 285.4445 0000992   8.4035 120.5707 11.06834057107344
GLOBALSTAR M043         
1 25874U 99041C   24162.46083002 -.00000085  00000+0 -48884-3 0  9996
2 25874  51.9385 231.1201 0011999  38.4400 334.5032 11.25679521 81016
GLOBALSTAR M028         
1 25875U 99041D   24162.90175126 -.00000020  00000+0  51700-3 0  9994
2 25875  51.9610 220.1519 0063080 345.2112  14.6904 12.50557803143723
